{
  "norad_id": 63073,
  "name": "STARLINK-33586",
  "history": [
    {
      "epoch": "2026-03-28T12:50:26.786400Z",
      "apogee_km": 483.9588788048204,
      "perigee_km": 482.05093246370143,
      "latitude_deg": 4.60490014776493e-05,
      "longitude_deg": 14.998551474608353,
      "height_km": 482.8047576019918,
      "semi_major_axis_km": 6861.14190563426,
      "eccentricity": 0.00013904,
      "inclination_deg": 43.0003,
      "raan_deg": 33.5642,
      "arg_perigee_deg": 268.6104,
      "mean_anomaly_deg": 91.4589,
      "mean_motion_rev_day": 15.27594758
    },
    {
      "epoch": "2026-03-30T05:38:30.626880Z",
      "apogee_km": 483.11637175210035,
      "perigee_km": 482.83438003345145,
      "latitude_deg": 1.0137416462650149e-05,
      "longitude_deg": 111.7075715033664,
      "height_km": 482.610025988761,
      "semi_major_axis_km": 6861.112375892776,
      "eccentricity": 2.055e-05,
      "inclination_deg": 43.0013,
      "raan_deg": 23.9649,
      "arg_perigee_deg": 358.1917,
      "mean_anomaly_deg": 1.8934,
      "mean_motion_rev_day": 15.2760462
    },
    {
      "epoch": "2026-03-30T11:55:07.943808Z",
      "apogee_km": 483.6933105019416,
      "perigee_km": 482.3846097993028,
      "latitude_deg": -1.5881658718029185e-05,
      "longitude_deg": 15.81696829507388,
      "height_km": 482.6024881120194,
      "semi_major_axis_km": 6861.175960150622,
      "eccentricity": 9.537e-05,
      "inclination_deg": 43.0011,
      "raan_deg": 22.4876,
      "arg_perigee_deg": 288.9873,
      "mean_anomaly_deg": 71.0875,
      "mean_motion_rev_day": 15.27583385
    },
    {
      "epoch": "2026-03-30T19:45:55.428480Z",
      "apogee_km": 483.71653703536595,
      "perigee_km": 482.2574504068616,
      "latitude_deg": 4.1523153717772135e-05,
      "longitude_deg": -104.0456681711969,
      "height_km": 482.6309866618689,
      "semi_major_axis_km": 6861.123993721114,
      "eccentricity": 0.00010633,
      "inclination_deg": 42.9948,
      "raan_deg": 20.645,
      "arg_perigee_deg": 79.7591,
      "mean_anomaly_deg": 280.3381,
      "mean_motion_rev_day": 15.2760074
    },
    {
      "epoch": "2026-03-31T11:27:29.657376Z",
      "apogee_km": 483.72892053769465,
      "perigee_km": 482.39729882040774,
      "latitude_deg": -4.926927639088484e-05,
      "longitude_deg": 16.22263337506293,
      "height_km": 482.8900238773671,
      "semi_major_axis_km": 6861.200109679051,
      "eccentricity": 9.704e-05,
      "inclination_deg": 42.9995,
      "raan_deg": 16.9505,
      "arg_perigee_deg": 265.638,
      "mean_anomaly_deg": 94.436,
      "mean_motion_rev_day": 15.2757532
    },
    {
      "epoch": "2026-04-01T10:59:51.077184Z",
      "apogee_km": 483.870528483244,
      "perigee_km": 482.2457974686513,
      "latitude_deg": -2.1816969576131722e-05,
      "longitude_deg": 16.627990735647312,
      "height_km": 482.65169178995467,
      "semi_major_axis_km": 6861.195162975947,
      "eccentricity": 0.0001184,
      "inclination_deg": 42.9975,
      "raan_deg": 11.4118,
      "arg_perigee_deg": 282.998,
      "mean_anomaly_deg": 77.0739,
      "mean_motion_rev_day": 15.27576972
    },
    {
      "epoch": "2026-04-02T18:22:57.674784Z",
      "apogee_km": 483.6592124643821,
      "perigee_km": 482.22538411262485,
      "latitude_deg": 4.9071774171493005e-06,
      "longitude_deg": -102.82401252691207,
      "height_km": 482.6984962090505,
      "semi_major_axis_km": 6861.079298288503,
      "eccentricity": 0.00010449,
      "inclination_deg": 43.0008,
      "raan_deg": 4.0262,
      "arg_perigee_deg": 271.6217,
      "mean_anomaly_deg": 88.4515,
      "mean_motion_rev_day": 15.27615667
    }
  ]
}